#dP2021 12 24  0  0  0.00000000     288   u+U IGb14 FIT  GFZ                    
## 2189 432000.00000000   300.00000000 59572 0.0000000000000                    
+  122   C01C02C03C04C05C06C07C08C09C10C11C12C13C14C16C19C20                    
+        C21C22C23C24C25C26C27C28C29C30C32C33C34C35C36C37C38                    
+        C39C40C41C42C43C44C45C46C59E01E02E03E04E05E07E08E09                    
+        E11E12E13E14E15E18E19E21E24E25E26E27E30E31E33E36G01                    
+        G02G03G04G05G06G07G08G09G10G11G12G13G14G15G16G17G18                    
+        G19G20G21G22G23G24G25G26G27G28G29G30G31G32J02J03J07                    
+        R01R02R03R04R05R07R08R09R11R12R13R14R15R17R18R19R20                    
+        R21R22R24 00 00 00 00 00 00 00 00 00 00 00 00 00 00                    
++        10 10 10 10 10 10 10 10  9 10 10 10  9 10 10  6  5                    
++         6  6  8  5  7  5  7  6  8  6  8  8  6  6  5  7 10                    
++        10 10  6  8  6  7  7  8 10  8  5  7  5  6  8  7  6                    
++         5  5  6  6  6  5  6  5  7  5  8  5  7  5  6  6  5                    
++         6  6  5  5  6  5  6  5  7  8  6  5  5  7  5  6  5                    
++         6  5  6  6  7  5  5  8  7  7  6  5  6  6 10  9 10                    
++         8  6  7  6  7  6  5  5  8  7  7  7  6  6  6  6  7                    
++         5  7  6  0  0  0  0  0  0  0  0  0  0  0  0  0  0                    
%c M  cc GPS ccc cccc cccc cccc cccc ccccc ccccc ccccc ccccc                    
%c cc cc ccc ccc cccc cccc cccc cccc ccccc ccccc ccccc ccccc                    
%f  1.2500000  1.025000000  0.00000000000  0.000000000000000                    
%f  0.0000000  0.000000000  0.00000000000  0.000000000000000                    
%i    0    0    0    0      0      0      0      0         0                    
%i    0    0    0    0      0      0      0      0         0                    
/* PCV:IGS14_2178 OL/AL:FES2004  NONE     YN CLK:CoN ORB:CoN                    
/*     GeoForschungsZentrum Potsdam                                             
/*                                                                              
/*                                                                              
*  2021 12 24 11 25  0.00000000                                                 
PC01 -34364.526433  24478.143566    -69.024797   -311.530674                    
PC02   4444.668785  41866.372818  -1144.299721    777.475819                    
PC03 -14686.275000  39491.894702   -915.871631    431.011639                    
PC04 -39637.026703  14449.244727    183.659270   -243.691933                    
PC05  21797.495246  36037.514602  -1387.267973    343.330550                    
PC06  -7575.074885  40752.208122  -7070.918085    686.754525                    
PC07  -3844.455558  27455.066610  31797.578438     84.205909                    
PC08 -17957.471969  27226.401480 -26792.125255      3.480752                    
PC09  -3910.648075  41723.581815    576.057974   -375.204998                    
PC10   4128.855714  29708.725000  30035.062191    138.225561                    
PC11  15339.995523  -5639.790850 -22540.632879   -313.804735                    
PC12  12207.533887  14870.991006 -20175.345439   -429.389483                    
PC13 -12662.555807  28063.930719 -28811.938562   -168.250108                    
PC14  23012.943406   2068.182685  15701.070778    487.684965                    
PC16 -10190.154311  39023.004735 -11756.589868     34.261611                    
PC19 -17073.566808   6230.288520 -21153.404010    918.686887                    
PC20 -24848.340951  -8631.752043  -9276.523568   -797.337674                    
PC21  18154.431342  19246.141677  -8886.340089   -952.007767                    
PC22    883.221603  18089.295646 -21240.042315   -963.986467                    
PC23  10243.700687 -19115.460366 -17554.856264   -963.932959                    
PC24  23615.079380    198.934917  14828.391538   -949.368011                    
PC25  23581.762782 -14638.181995  -2766.802283   -805.271428                    
PC26  10625.059011  12607.946126  22498.870562    803.410824                    
PC27  -8070.388700 -22703.366298  14075.687105    650.227700                    
PC28   3967.926957 -27479.199120  -2783.582113     12.617245                    
PC29 -13198.147494  16553.131914  18177.975022    491.914096                    
PC30 -15546.567090  -4868.325608  22658.251136    489.528220                    
PC32 -18225.944548 -19135.360972   8972.689286   -956.775846                    
PC33  17141.082654  -6273.960426  21111.663054   -958.331015                    
PC34  15708.146749   3780.373505 -22756.276726   -507.600170                    
PC35  -3405.679158  27473.075322   3371.216847     60.715946                    
PC36 -24122.177397  13851.758727   2335.032026   -842.317975                    
PC37  -9316.644436 -13433.419665 -22605.668162   -921.003997                    
PC38 -25029.570037  28447.521925 -18660.469844    198.937778                    
PC39 -10839.488210  37165.541710 -16538.260952     34.443545                    
PC40  -9262.722500  20888.517586  35448.014106    229.376121                    
PC41   -467.996118 -17964.491216  21396.643458   -917.778135                    
PC42  24942.549571   9262.108471   8473.647019   -931.540466                    
PC43  13581.532150 -15914.545438 -18480.455355   -952.432491                    
PC44   8843.499519  22518.452286 -13885.308041    508.629450                    
PC45 -10089.258066  19046.029992  17740.589891    635.300818                    
PC46 -24202.410954    965.658021 -13898.709696    -77.379174                    
PC59 -32362.498422  27055.358647   -268.347604     -0.021317                    
PE01 -19443.018773 -13056.294748 -18108.002928   -544.745464                    
PE02  19544.401443  12999.005026  18018.437084    268.960425                    
PE03  17105.787241  23449.255512   5820.313272   -509.695846                    
PE04 -20131.601067  -6929.966183 -20567.432434   -927.626854                    
PE05   3970.751615  26484.561454 -12611.633485   -224.063492                    
PE07  11301.765340 -14066.186833  23461.435288   -620.968459                    
PE08  19981.008832   6483.377267  20850.935674   5883.661242                    
PE09 -10970.071299  14259.650309 -23511.625885   5419.125922                    
PE11 -18815.117146  21739.509166   7018.349247   4826.707846                    
PE12 -19322.483151   3892.356008  22085.309217   4845.072032                    
PE13  18940.288745 -21434.561677  -7608.339881    424.979917                    
PE14 -13775.948255 -16175.208225  10582.820772  -1685.699870                    
PE15  19216.574118  -3886.081632 -22163.449427    773.427982                    
PE18  20936.078072  15173.201626 -19621.930237  -1854.650039                    
PE19 -15877.634547 -24735.870063  -3528.696494    460.070185                    
PE21    751.774067 -16586.248424 -24504.650064   -707.138568                    
PE24 -22590.913958  10115.168634  16245.602871  -1297.061114                    
PE25  -1066.027974  16575.861701  24507.073842   -557.930196                    
PE26   6751.679828 -26110.639757  12202.246384   -606.504285                    
PE27  21592.703062 -10791.928747 -17114.804328   -193.903920                    
PE30  29474.395350   2183.744028   1387.237594   -135.325019                    
PE31 -29577.260021  -1296.169408   -271.450851   -489.794410                    
PE33  -8167.660104 -15893.286642  23609.442784   -461.110585                    
PE36  -7547.509174  26283.571036 -11317.038097   -308.268727                    
PG01 -12820.735625  21971.776259  -7263.334426    475.640077                    
PG02  19626.709024 -12300.586498 -12424.587592   -646.661160                    
PG03  -7428.668938  13635.501521 -21639.656339    -52.370024                    
PG04  -2558.059971  22784.680990 -13340.361559   -197.881130                    
PG05  21892.010623  -6445.446927  13550.330939    -65.487623                    
PG06  15255.200903   3922.945104 -21326.664395    151.290308                    
PG07   1265.634573  18970.902361  18717.177254    294.470022                    
PG08  -9732.560931  13970.252936  20280.999755    -49.327219                    
PG09   7114.296684  25380.063937  -3203.446397   -359.773506                    
PG10 -21140.150930 -11767.953051  11422.421477   -276.291886                    
PG11  21166.629788  -8224.947741 -13769.281016      9.943244                    
PG12  10489.917838 -12313.003237 -21298.345504   -145.448631                    
PG13  13973.409708  -5896.370332  21638.208249    234.360193                    
PG14  20312.590345  12858.997183  11354.873431    -60.211585                    
PG15   8257.714594 -15672.572303  19293.479797    -96.795547                    
PG16 -24190.313960   1163.232468  11168.165926   -445.247941                    
PG17  12883.912545  20768.221853  -9915.620203    551.891847                    
PG18   -994.040260 -18479.816656  19009.303302    273.881355                    
PG19  15208.656964  13745.932374 -17244.973246     96.369222                    
PG20  26099.232760  -1870.046840   3646.775976    517.498191                    
PG21 -17333.248639  19460.664556   3667.481304    154.515177                    
PG22 -15957.852065  11642.296117 -17483.918180   -433.949918                    
PG23 -10850.509202 -15003.196077  19059.668828     18.472520                    
PG24  14083.359721 -22160.676064  -2297.203136    275.980724                    
PG25  -2878.805824 -15819.105919 -21455.360765    260.516232                    
PG26 -26206.165889  -4907.651533  -1941.607206    167.970462                    
PG27 -14816.759521   2437.648877  21745.455491     23.014229                    
PG28  24001.390669  10226.987546   4819.341212    436.649731                    
PG29  -2415.952007 -25588.586846  -6621.867247   -458.197720                    
PG30  10156.669898  12222.325676  21332.120912   -501.692658                    
PG31 -17443.073356  -1931.334956 -20184.487827   -156.574965                    
PG32 -15874.838178 -16911.830507 -12989.911443    -39.762467                    
PJ02 -30550.146492  23364.184223  22181.418554     -0.481533                    
PJ03 -28067.416975  27788.277161  19693.496138    -10.311177                    
PJ07 -25398.123769  33659.775204    -23.374230      0.004463                    
PR01 -18691.159056 -17351.785433    183.946647      7.381299                    
PR02 -17401.208238  -5216.735342 -17902.684358    504.297025                    
PR03  -5812.457545   9499.056099 -22907.415091     48.691549                    
PR04   8948.324140  18517.194967 -15058.724708    120.325814                    
PR05  18595.294142  17401.474805   1154.095225     84.739894                    
PR07   5168.615292 -10102.302031  22881.047852    -38.963504                    
PR08  -8975.675118 -18599.927980  15042.034744    -62.699623                    
PR09  24630.084367  -5568.529086   3873.065793     30.409239                    
PR11   2082.362744 -11770.364618 -22526.027873     48.406537                    
PR12 -16548.090805  -4524.820625 -18864.227896    289.141870                    
PR13 -24523.672378   5011.973691  -4947.571978    -16.068870                    
PR14 -18196.221174  12052.604434  13203.003965     72.441425                    
PR15  -1423.367162  11706.482237  22635.621497     99.381255                    
PR17 -10137.229452  21086.851020  10225.733780    486.366738                    
PR18  -3296.008083  24386.073725  -6600.534162    101.544005                    
PR19   4393.830465  15909.758827 -19443.442485   -171.841687                    
PR20  11636.227904  -4783.629889 -22182.029571    -61.791846                    
PR21   9777.516762 -21786.148183  -8922.862319   -264.662014                    
PR22   2990.588341 -24233.200967   7537.788605   -153.515234                    
PR24 -12066.334040   5619.467808  21786.679930     72.590561                    
EOF                                     
